     3.03           N: GNSS NAV DATA    M: Mixed            RINEX VERSION / TYPE
Emlid RGL 1.2.7                         20241129 090521 UTC PGM / RUN BY / DATE 
format: u-blox                                              COMMENT             
GPSA   0.0000E+00  0.0000E+00  0.0000E+00  0.0000E+00       IONOSPHERIC CORR    
GPSB   0.0000E+00  0.0000E+00  0.0000E+00  0.0000E+00       IONOSPHERIC CORR    
GAL    0.0000E+00  0.0000E+00  0.0000E+00  0.0000E+00       IONOSPHERIC CORR    
QZSA   0.0000E+00  0.0000E+00  0.0000E+00  0.0000E+00       IONOSPHERIC CORR    
QZSB   0.0000E+00  0.0000E+00  0.0000E+00  0.0000E+00       IONOSPHERIC CORR    
GPUT  0.0000000000E+00 0.000000000E+00      0 2304          TIME SYSTEM CORR    
GAUT  0.0000000000E+00 0.000000000E+00      0    0          TIME SYSTEM CORR    
QZUT  0.0000000000E+00 0.000000000E+00      0 2304          TIME SYSTEM CORR    
BDUT  0.0000000000E+00 0.000000000E+00      0    0          TIME SYSTEM CORR    
     0                                                      LEAP SECONDS        
                                                            END OF HEADER       
R18 2024 11 29  9 15  0  .174225308001E-03  .909494701773E-12  .464700000000E+06
     -.171144790039E+05  .101797103882E+01 -.186264514923E-08  .000000000000E+00
      .155334897461E+05 -.108346080780E+01 -.279396772385E-08 -.300000000000E+01
      .107652534180E+05  .319245910645E+01  .000000000000E+00  .000000000000E+00
R16 2024 11 29  9 15  0  .311704352498E-04  .000000000000E+00  .464700000000E+06
     -.597621142578E+04 -.308600139618E+01 -.186264514923E-08  .000000000000E+00
      .102596972656E+05 -.179643630981E+00 -.186264514923E-08 -.100000000000E+01
      .225761958008E+05 -.738538742065E+00 -.931322574615E-09  .000000000000E+00
R15 2024 11 29  9 15  0  .736350193620E-04  .000000000000E+00  .464700000000E+06
     -.218329492188E+05 -.170526504517E+01 -.279396772385E-08  .000000000000E+00
      .440729492188E+04 -.132369995117E-02 -.279396772385E-08  .000000000000E+00
      .124408583984E+05 -.299588871002E+01  .931322574615E-09  .000000000000E+00
R17 2024 11 29  9 15  0  .144097954035E-03  .363797880709E-11  .464700000000E+06
     -.134178027344E+05  .175380706787E+01 -.372529029846E-08  .000000000000E+00
      .186856591797E+04 -.238564109802E+01 -.186264514923E-08  .400000000000E+01
      .216389873047E+05  .129035282135E+01  .000000000000E+00  .000000000000E+00
R14 2024 11 29  9 15  0  .272924080491E-04  .000000000000E+00  .464700000000E+06
     -.247554936523E+05  .638566970825E+00 -.279396772385E-08  .000000000000E+00
     -.386710986328E+04  .169050216675E+00 -.186264514923E-08 -.700000000000E+01
     -.472454882812E+04 -.348084068298E+01  .279396772385E-08  .000000000000E+00
